1 45414U 20019BG  23080.08875044  .00028331  00000-0  19103-2 0  9992
2 45414  53.0535 325.5791 0000893  89.6198 270.4893 15.06457273166370
1 45414U 20019BG  23080.81857406  .00021759  00000-0  14750-2 0  9995
2 45414  53.0532 322.3028 0001199 108.8967 251.2152 15.06403049166505
1 45414U 20019BG  23080.95127023  .00020872  00000-0  14164-2 0  9999
2 45414  53.0532 321.7071 0001230  80.3284 279.7844 15.06389061166508
1 45414U 20019BG  23081.08396512  .00028361  00000-0  19157-2 0  9993
2 45414  53.0532 321.1116 0001297  79.5921 280.5214 15.06391185166548
1 45414U 20019BG  23081.88011832  .00019496  00000-0  13231-2 0  9996
2 45414  53.0524 317.5365 0001246  81.6488 278.4642 15.06427711166647
1 45414U 20019BG  23081.94646319  .00020828  00000-0  14118-2 0  9993
2 45414  53.0525 317.2389 0001265  82.6662 277.4471 15.06432674166651
1 45414U 20019BG  23081.94646319  .00020828  00000-0  14118-2 0  9993
2 45414  53.0525 317.2389 0001265  82.6662 277.4471 15.06432674166673
1 45414U 20019BG  23082.87532979  .00031236  00000-0  21065-2 0  9996
2 45414  53.0520 313.0697 0001249 118.3611 241.7504 15.06402060166810
1 45414U 20019BG  23082.94167725  .00023861  00000-0  16155-2 0  9996
2 45414  53.0514 312.7697 0001342 111.9420 248.1712 15.06396521166805
1 45414U 20019BG  23083.00802282  .00009594  00000-0  66215-3 0  9998
2 45414  53.0516 312.4723 0001240 115.1604 244.9514 15.06397764166816
1 45414U 20019BG  23083.00802282  .00009594  00000-0  66215-3 0  9998
2 45414  53.0516 312.4723 0001240 115.1604 244.9514 15.06397764166838
1 45414U 20019BG  23083.80416785  .00039669  00000-0  26625-2 0  9991
2 45414  53.0509 308.8982 0001142 116.9686 243.1420 15.06463957166954
1 45414U 20019BG  23083.93685675  .00027133  00000-0  18304-2 0  9999
2 45414  53.0519 308.3026 0001240 116.2900 243.8216 15.06461476166954
1 45414U 20019BG  23084.06954345  .00025542  00000-0  17241-2 0  9998
2 45414  53.0519 307.7072 0001212 115.8052 244.3062 15.06470806166996
1 45414U 20019BG  23084.86571602  .00025033  00000-0  16932-2 0  9998
2 45414  53.0514 304.1324 0001396  96.7328 263.3820 15.06406281167099
1 45414U 20019BG  23084.86571602  .00025033  00000-0  16932-2 0  9998
2 45414  53.0514 304.1324 0001396  96.7328 263.3820 15.06406281167112
1 45414U 20019BG  23085.86089586  .00027838  00000-0  18774-2 0  9995
2 45414  53.0527 299.6657 0001247  86.9827 273.1304 15.06458668167249
1 45414U 20019BG  23085.99358441  .00030399  00000-0  20473-2 0  9993
2 45414  53.0532 299.0694 0001251  88.7058 271.4074 15.06465095167260
1 45414U 20019BG  23085.99358441  .00030399  00000-0  20473-2 0  9993
2 45414  53.0532 299.0694 0001251  88.7058 271.4074 15.06465095167282
1 45414U 20019BG  23086.85611658  .00015076  00000-0  10300-2 0  9994
2 45414  53.0528 295.1979 0000427  89.8958 270.2080 15.06357704167398
1 45414U 20019BG  23086.85611658  .00015076  00000-0  10300-2 0  9994
2 45414  53.0528 295.1979 0000427  89.8958 270.2080 15.06357704167411
1 45414U 20019BG  23087.58594448  .00018098  00000-0  12313-2 0  9995
2 45414  53.0531 291.9205 0000377  95.3794 264.7238 15.06382731167506
1 45414U 20019BG  23087.78498867  .00034641  00000-0  23344-2 0  9993
2 45414  53.0531 291.0272 0000676  71.7063 288.4000 15.06379461167539
1 45414U 20019BG  23088.24941457  .00011210  00000-0  77028-3 0  9999
2 45414  53.0529 288.9425 0000552  92.0616 268.0436 15.06398871167627
1 45414U 20019BG  23088.51480016  .00011567  00000-0  79401-3 0  9990
2 45414  53.0528 287.7505 0000617  95.0322 265.0737 15.06406275167642
1 45414U 20019BG  23088.84652877  .00016082  00000-0  10954-2 0  9996
2 45414  53.0531 286.2615 0000581 109.5078 250.5973 15.06422997167696
1 45414U 20019BG  23089.24459824  .00022194  00000-0  15023-2 0  9991
2 45414  53.0524 284.4738 0000652 113.9515 246.1542 15.06446520167778
1 45414U 20019BG  23089.77534989  .00026905  00000-0  18145-2 0  9997
2 45414  53.0522 282.0913 0000566 108.4795 251.6255 15.06476016167830
1 45414U 20019BG  23090.23977048 -.00002321  00000-0 -13690-3 0  9996
2 45414  53.0520 280.0062 0000840  36.7722 323.3325 15.06428863167921
1 45414U 20019BG  23090.90327084  .00016376  00000-0  11178-2 0  9990
2 45414  53.0521 277.0283 0000635  20.5883 339.5131 15.06329291168025
1 45414U 20019BG  23091.23502525  .00024804  00000-0  16818-2 0  9993
2 45414  53.0517 275.5386 0001069  33.2828 326.8228 15.06321166168051
1 45414U 20019BG  23091.23502525  .00024804  00000-0  16818-2 0  9993
2 45414  53.0517 275.5386 0001069  33.2828 326.8228 15.06321166168073
1 45414U 20019BG  23091.76582389  .00023653  00000-0  16040-2 0  9995
2 45414  53.0522 273.1569 0001209  31.4409 328.6652 15.06341879168138
1 45414U 20019BG  23092.49565041  .00024607  00000-0  16657-2 0  9996
2 45414  53.0523 269.8824 0001494  13.7284 346.3746 15.06386166168246
1 45414U 20019BG  23092.62834354  .00025222  00000-0  17063-2 0  9993
2 45414  53.0527 269.2863 0001510  14.2747 345.8284 15.06396008168287
1 45414U 20019BG  23092.76103417  .00031204  00000-0  21035-2 0  9998
2 45414  53.0523 268.6894 0001317  24.4870 335.6182 15.06417399168286
1 45414U 20019BG  23092.76103417  .00031204  00000-0  21035-2 0  9998
2 45414  53.0523 268.6894 0001317  24.4870 335.6182 15.06417399168309
1 45414U 20019BG  23093.49083093  .00027050  00000-0  18252-2 0  9997
2 45414  53.0521 265.4126 0001359  21.7895 338.3152 15.06454288168397
1 45414U 20019BG  23093.75621301  .00023827  00000-0  16119-2 0  9994
2 45414  53.0527 264.2213 0001179 346.3974  13.6983 15.06426808168438
1 45414U 20019BG  23093.75621301  .00023827  00000-0  16119-2 0  9994
2 45414  53.0527 264.2213 0001179 346.3974  13.6983 15.06426808168450
1 45414U 20019BG  23094.15429103 -.00022640  00000-0 -15061-2 0  9994
2 45414  53.0522 262.4338 0000518   7.2668 352.8329 15.06394906168514
1 45414U 20019BG  23094.48603478  .00002334  00000-0  17559-3 0  9990
2 45414  53.0524 260.9435 0001051  40.7719 319.3348 15.06380829168540
1 45414U 20019BG  23094.95046841  .00022657  00000-0  15353-2 0  9996
2 45414  53.0521 258.8582 0001284  40.8192 319.2893 15.06394335168631
1 45414U 20019BG  23095.61392969  .00023480  00000-0  15888-2 0  9993
2 45414  53.0520 255.8792 0001173  45.0119 315.0965 15.06426970168717
1 45414U 20019BG  23095.74662025  .00023784  00000-0  16088-2 0  9990
2 45414  53.0520 255.2841 0001128  42.0449 318.0627 15.06433084168733
1 45414U 20019BG  23096.14470179 -.00002331  00000-0 -13761-3 0  9995
2 45414  53.0534 253.4980 0000901  58.1233 301.9844 15.06407603168818
1 45414U 20019BG  23096.41009361  .00004104  00000-0  29432-3 0  9996
2 45414  53.0522 252.3065 0001338  64.9668 295.1460 15.06390405168830
1 45414U 20019BG  23096.41009361  .00004104  00000-0  29432-3 0  9996
2 45414  53.0522 252.3065 0001338  64.9668 295.1460 15.06390405168852
1 45414U 20019BG  23096.80817985  .00000833  00000-0  74850-4 0  9998
2 45414  53.0519 250.5181 0001309  56.0280 304.0833 15.06385996168894
1 45414U 20019BG  23096.80817985  .00000833  00000-0  74850-4 0  9998
2 45414  53.0519 250.5181 0001309  56.0280 304.0833 15.06385996168917
1 45414U 20019BG  23097.13991404  .00026834  00000-0  18133-2 0  9993
2 45414  53.0522 249.0284 0000839  52.7351 307.3714 15.06404053168962
1 45414U 20019BG  23097.40529920  .00026763  00000-0  18079-2 0  9993
2 45414  53.0522 247.8369 0000894  53.8662 306.2410 15.06417999168986
1 45414U 20019BG  23098.13510196 -.00011976  00000-0 -78650-3 0  9993
2 45414  53.0530 244.5611 0000944 258.9765 101.1118 15.06398753169093
1 45414U 20019BG  23098.13510196 -.00011976  00000-0 -78650-3 0  9993
2 45414  53.0530 244.5611 0000944 258.9765 101.1118 15.06398753169116
1 45414U 20019BG  23098.79857725  .00033531  00000-0  22584-2 0  9990
2 45414  53.0528 241.5845 0001168  61.4348 298.6758 15.06414673169215
1 45414U 20019BG  23099.39568551  .00028993  00000-0  19547-2 0  9994
2 45414  53.0530 238.9040 0001330  63.2880 296.8245 15.06449421169284
1 45414U 20019BG  23099.79374998  .00027790  00000-0  18737-2 0  9992
2 45414  53.0533 237.1162 0001265  66.3304 293.7818 15.06469412169346
1 45414U 20019BG  23099.79374998  .00027790  00000-0  18737-2 0  9992
2 45414  53.0533 237.1162 0001265  66.3304 293.7818 15.06469412169368
1 45414U 20019BG  23100.39088235  .00012977  00000-0  88887-3 0  9992
2 45414  53.0534 234.4338 0001024 125.9982 234.1102 15.06382995169456
1 45414U 20019BG  23100.45723225  .00004184  00000-0  29983-3 0  9997
2 45414  53.0553 234.1400 0000527   3.4421 356.6572 15.06372518169449
1 45414U 20019BG  23100.78897126 -.00001094  00000-0 -54610-4 0  9990
2 45414  53.0534 232.6475 0001082  98.3818 261.7293 15.06378354169498
1 45414U 20019BG  23101.51879191  .00028827  00000-0  19456-2 0  9992
2 45414  53.0532 229.3720 0000997 100.6856 259.4246 15.06412876169608
1 45414U 20019BG  23101.51879191  .00028827  00000-0  19456-2 0  9992
2 45414  53.0532 229.3720 0000997 100.6856 259.4246 15.06412876169620
1 45414U 20019BG  23102.04956570  .00015749  00000-0  10735-2 0  9998
2 45414  53.0531 226.9904 0001090  61.4315 298.6784 15.06410014169708
1 45414U 20019BG  23102.51400700  .00020856  00000-0  14164-2 0  9994
2 45414  53.0537 224.9052 0001013  69.8725 290.2373 15.06360880169772
1 45414U 20019BG  23103.04478947  .00027417  00000-0  18528-2 0  9999
2 45414  53.0541 222.5225 0001258  67.9633 292.1489 15.06390955169833
1 45414U 20019BG  23104.50442424  .00010307  00000-0  71032-3 0  9992
2 45414  53.0534 215.9701 0001176  73.8192 286.2926 15.06374630170053
1 45414U 20019BG  23104.70346974  .00032737  00000-0  22077-2 0  9992
2 45414  53.0520 215.0753 0001367  82.6877 277.4267 15.06379013170102
1 45414U 20019BG  23105.56596371  .00043256  00000-0  29005-2 0  9991
2 45414  53.0526 211.2039 0001354  72.7344 287.3793 15.06458941170212
1 45414U 20019BG  23105.76499412  .00046073  00000-0  30852-2 0  9993
2 45414  53.0525 210.3099 0001334  72.7450 287.3685 15.06479534170247
1 45414U 20019BG  23106.49483080  .00006248  00000-0  43839-3 0  9998
2 45414  53.0532 207.0336 0001180  92.9574 267.1550 15.06361909170357
